[{"OBJECT_NAME":"OBJECT B","OBJECT_ID":"2024-018B","EPOCH":"2026-03-09T23:37:58.932768","MEAN_MOTION":14.43067172,"ECCENTRICITY":0.04162119,"INCLINATION":58.6942,"RA_OF_ASC_NODE":207.6312,"ARG_OF_PERICENTER":352.1605,"MEAN_ANOMALY":7.3044,"EPHEMERIS_TYPE":0,"CLASSIFICATION_TYPE":"U","NORAD_CAT_ID":58850,"ELEMENT_SET_NO":999,"REV_AT_EPOCH":11107,"BSTAR":0.00029384903,"MEAN_MOTION_DOT":2.642e-5,"MEAN_MOTION_DDOT":0},{"OBJECT_NAME":"DMSP 5D-2 F13 DEB","OBJECT_ID":"1995-015Q","EPOCH":"2026-03-09T00:16:31.118592","MEAN_MOTION":14.30788605,"ECCENTRICITY":0.00106144,"INCLINATION":98.6763,"RA_OF_ASC_NODE":95.6478,"ARG_OF_PERICENTER":320.1265,"MEAN_ANOMALY":39.9137,"EPHEMERIS_TYPE":0,"CLASSIFICATION_TYPE":"U","NORAD_CAT_ID":40403,"ELEMENT_SET_NO":999,"REV_AT_EPOCH":57245,"BSTAR":0.0012536031,"MEAN_MOTION_DOT":3.243e-5,"MEAN_MOTION_DDOT":0}]
